*******************************************************************************
JPL/HORIZONS                1846 Bengt (6553 P-L)          2023-Sep-04 11:14:30
Rec #:    1846 (+COV) Soln.date: 2023-Aug-22_11:54:45   # obs: 3548 (1957-2023)
 
IAU76/J2000 helio. ecliptic osc. elements (au, days, deg., period=Julian yrs):
 
  EPOCH=  2457610.5 ! 2016-Aug-10.00 (TDB)         Residual RMS= .26512
   EC= .1422001328735035   QR= 2.005722274439109   TP= 2457071.8551617027
   OM= 19.09180282054966   W=  75.16002947265851   IN= 3.184391102865977
   A= 2.338217049575892    MA= 148.4838917898495   ADIST= 2.670711824712676
   PER= 3.57549            N= .27566196            ANGMOM= .02603682
   DAN= 2.21043            DDN= 2.37753            L= 94.2298979
   B= 3.0780715            MOID= 1.02505004        TP= 2015-Feb-18.3551617027
 
Asteroid physical parameters (km, seconds, rotational period in hours):
   GM= n.a.                RAD= 5.499              ROTPER= n.a.
   H= 13.82                G= .150                 B-V= n.a.
                           ALBEDO= .047            STYP= n.a.

ASTEROID comments: 
1: soln ref.= JPL#43, OCC=0
2: source=ORB
*******************************************************************************


*******************************************************************************
Ephemeris / API_USER Mon Sep  4 11:14:30 2023 Pasadena, USA      / Horizons
*******************************************************************************
Target body name: 1846 Bengt (6553 P-L)           {source: JPL#43}
Center body name: Solar System Barycenter (0)     {source: DE441}
Center-site name: BODY CENTER
*******************************************************************************
Start time      : A.D. 2023-Aug-12 00:00:00.0000 TDB
Stop  time      : A.D. 2023-Aug-13 00:00:00.0000 TDB
Step-size       : 2880 minutes
*******************************************************************************
Center geodetic : 0.0, 0.0, 0.0                   {E-lon(deg),Lat(deg),Alt(km)}
Center cylindric: 0.0, 0.0, 0.0                   {E-lon(deg),Dxy(km),Dz(km)}
Center radii    : (undefined)
Small perturbers: Yes                             {source: SB441-N16}
Output units    : KM-S
Calendar mode   : Mixed Julian/Gregorian
Output type     : GEOMETRIC cartesian states
Output format   : 2 (position and velocity)
Reference frame : Ecliptic of J2000.0
*******************************************************************************
Initial IAU76/J2000 heliocentric ecliptic osculating elements (au, days, deg.):
  EPOCH=  2457610.5 ! 2016-Aug-10.00 (TDB)         Residual RMS= .26512        
   EC= .1422001328735035   QR= 2.005722274439109   TP= 2457071.8551617027      
   OM= 19.09180282054966   W=  75.16002947265851   IN= 3.184391102865977       
  Equivalent ICRF heliocentric cartesian coordinates (au, au/d):
   X=-8.967380764147908E-01  Y=-2.223245266864747E+00  Z=-1.087791742686107E+00
  VX= 9.071988824682752E-03 VY=-3.499908358822398E-03 VZ=-1.925222456888562E-03
Asteroid physical parameters (km, seconds, rotational period in hours):        
   GM= n.a.                RAD= 5.499              ROTPER= n.a.                
   H= 13.82                G= .150                 B-V= n.a.                   
                           ALBEDO= .047            STYP= n.a.                  
*******************************************************************************
JDTDB
   X     Y     Z
   VX    VY    VZ
*******************************************************************************
$$SOE
2460168.500000000 = A.D. 2023-Aug-12 00:00:00.0000 TDB 
 X =-2.060396986209823E+08 Y =-3.279592742851666E+08 Z =-1.350864419011657E+07
 VX= 1.392274456965856E+01 VY=-1.063899421437683E+01 VZ=-8.104487747022588E-01
$$EOE
*******************************************************************************
 
TIME

  Barycentric Dynamical Time ("TDB" or T_eph) output was requested. This
continuous coordinate time is equivalent to the relativistic proper time
of a clock at rest in a reference frame co-moving with the solar system
barycenter but outside the system's gravity well. It is the independent
variable in the solar system relativistic equations of motion.

  TDB runs at a uniform rate of one SI second per second and is independent
of irregularities in Earth's rotation.
 
CALENDAR SYSTEM

  Mixed calendar mode was active such that calendar dates after AD 1582-Oct-15
(if any) are in the modern Gregorian system. Dates prior to 1582-Oct-5 (if any)
are in the Julian calendar system, which is automatically extended for dates
prior to its adoption on 45-Jan-1 BC.  The Julian calendar is useful for
matching historical dates. The Gregorian calendar more accurately corresponds
to the Earth's orbital motion and seasons. A "Gregorian-only" calendar mode is
available if such physical events are the primary interest.

REFERENCE FRAME AND COORDINATES

  Ecliptic at the standard reference epoch

    Reference epoch: J2000.0
    X-Y plane: adopted Earth orbital plane at the reference epoch
               Note: IAU76 obliquity of 84381.448 arcseconds wrt ICRF X-Y plane
    X-axis   : ICRF
    Z-axis   : perpendicular to the X-Y plane in the directional (+ or -) sense
               of Earth's north pole at the reference epoch.

  Symbol meaning:

    JDTDB    Julian Day Number, Barycentric Dynamical Time
      X      X-component of position vector (km)
      Y      Y-component of position vector (km)
      Z      Z-component of position vector (km)
      VX     X-component of velocity vector (km/sec)                           
      VY     Y-component of velocity vector (km/sec)                           
      VZ     Z-component of velocity vector (km/sec)                           

ABERRATIONS AND CORRECTIONS

 Geometric state vectors have NO corrections or aberrations applied.

Computations by ...

    Solar System Dynamics Group, Horizons On-Line Ephemeris System
    4800 Oak Grove Drive, Jet Propulsion Laboratory
    Pasadena, CA  91109   USA

    General site: https://ssd.jpl.nasa.gov/
    Mailing list: https://ssd.jpl.nasa.gov/email_list.html
    System news : https://ssd.jpl.nasa.gov/horizons/news.html
    User Guide  : https://ssd.jpl.nasa.gov/horizons/manual.html
    Connect     : browser        https://ssd.jpl.nasa.gov/horizons/app.html#/x
                  API            https://ssd-api.jpl.nasa.gov/doc/horizons.html
                  command-line   telnet ssd.jpl.nasa.gov 6775
                  e-mail/batch   https://ssd.jpl.nasa.gov/ftp/ssd/hrzn_batch.txt
                  scripts        https://ssd.jpl.nasa.gov/ftp/ssd/SCRIPTS
    Author      : Jon.D.Giorgini@jpl.nasa.gov
*******************************************************************************
